     3.00           N                   E                   RINEX VERSION / TYPE
BRD_USR             ESA                 20190103 071850  UTCPGM / RUN BY / DATE
 GAL   3.8500E+01  7.8125E-03  5.7983E-04  0.0000E+00       IONOSPHERIC CORR
GAUT  9.3132257462E-10-8.881784197E-16 345600 2034 GSTB   0 TIME SYSTEM CORR
GPGA -2.2700987756E-09-1.154631946E-14 345600 2034 GSTB   0 TIME SYSTEM CORR
                                                            END OF HEADER
E18 2019 01 03 05 20 00 5.634793022182E-03-2.845013113983E-11 0.000000000000E+00
     9.600000000000E+01-3.226875000000E+02 5.685593970667E-09 2.166362498082E+00
    -1.416355371475E-05 1.664012148976E-01-7.124617695808E-06 5.289382745743E+03
     3.648000000000E+05 3.309920430183E-06-1.321483247139E+00-1.046806573868E-06
     8.817945959758E-01 5.011250000000E+02 1.435414714670E+00-6.373479766729E-09
    -3.464430021702E-11 5.210000000000E+02 2.034000000000E+03 0.000000000000E+00
     3.120000000000E+00 4.550000000000E+02 1.443549990654E-08 1.606531441212E-08
     3.654850000000E+05 0.000000000000E+00 0.000000000000E+00 0.000000000000E+00
E21 2019 01 03 05 20 00-5.125393508933E-04-1.932676241267E-12 0.000000000000E+00
     9.600000000000E+01 1.946875000000E+02 2.590107888390E-09-2.041613068808E-02
     9.110197424889E-06 4.991923924536E-05 6.254762411118E-06 5.440634429932E+03
     3.648000000000E+05-5.215406417847E-08-2.827190370913E+00-6.332993507385E-08
     9.898920895732E-01 2.195937500000E+02-4.245145904395E-01-5.531301829495E-09
     3.235849071817E-10 5.210000000000E+02 2.034000000000E+03 0.000000000000E+00
     3.120000000000E+00 0.000000000000E+00-2.328306436539E-09-2.793967723846E-09
     3.654850000000E+05 0.000000000000E+00 0.000000000000E+00 0.000000000000E+00
E24 2019 01 03 05 20 00 6.305690272711E-03-1.968203378055E-11 0.000000000000E+00
     9.600000000000E+01 1.827500000000E+02 2.623323557670E-09 3.023971831010E+00
     8.525326848030E-06 4.621160915121E-04 7.495284080505E-06 5.440622905731E+03
     3.648000000000E+05-4.284083843231E-08-2.821107310306E+00-3.166496753693E-08
     9.878944442146E-01 1.932500000000E+02 4.368163402511E-01-5.412368304007E-09
     2.950122884460E-10 5.210000000000E+02 2.034000000000E+03 0.000000000000E+00
     3.120000000000E+00 0.000000000000E+00 4.260800778866E-08 4.796311259270E-08
     3.654850000000E+05 0.000000000000E+00 0.000000000000E+00 0.000000000000E+00
E26 2019 01 03 05 20 00 5.063108983450E-03-4.335731773608E-11 0.000000000000E+00
     9.600000000000E+01-1.781250000000E+02 2.647967441330E-09-4.225839306369E-01
    -8.290633559227E-06 3.275643102825E-04 9.726732969284E-06 5.440615756989E+03
     3.648000000000E+05-4.097819328308E-08-7.352132619320E-01-3.352761268616E-08
     9.783938402021E-01 1.361875000000E+02-2.128065713656E+00-5.390581682221E-09
    -1.678641350722E-10 5.210000000000E+02 2.034000000000E+03 0.000000000000E+00
     3.120000000000E+00 0.000000000000E+00 9.313225746155E-10 1.164153218269E-09
     3.654850000000E+05 0.000000000000E+00 0.000000000000E+00 0.000000000000E+00
E27 2019 01 03 05 20 00 5.574184469879E-04-7.716494110355E-12 0.000000000000E+00
     9.600000000000E+01 1.870000000000E+02 2.603322724555E-09 1.284271046770E+00
     8.728355169296E-06 2.118943957612E-04 6.113201379776E-06 5.440632530212E+03
     3.648000000000E+05 7.636845111847E-08-2.827174289054E+00 2.421438694000E-08
     9.898655639425E-01 2.250625000000E+02-9.423886613561E-01-5.416297039084E-09
     2.932264997750E-10 5.210000000000E+02 2.034000000000E+03 0.000000000000E+00
     3.120000000000E+00 0.000000000000E+00-2.561137080193E-09-3.026798367500E-09
     3.654850000000E+05 0.000000000000E+00 0.000000000000E+00 0.000000000000E+00
E30 2019 01 03 05 20 00 5.219009006396E-03-3.042543994525E-11 0.000000000000E+00
     9.600000000000E+01 1.855937500000E+02 2.623323557670E-09 6.200613242716E-01
     8.499249815941E-06 2.914889482781E-04 6.128102540970E-06 5.440622009277E+03
     3.648000000000E+05 9.313225746155E-09-2.821163100150E+00 3.539025783539E-08
     9.878793863988E-01 2.225312500000E+02 4.870040519821E-01-5.421297247362E-09
     2.532248335450E-10 5.210000000000E+02 2.034000000000E+03 0.000000000000E+00
     3.120000000000E+00 0.000000000000E+00-2.793967723846E-09-3.492459654808E-09
     3.654850000000E+05 0.000000000000E+00 0.000000000000E+00 0.000000000000E+00
E31 2019 01 03 05 20 00 9.423473966308E-04-9.720224625198E-12 0.000000000000E+00
     9.600000000000E+01 1.962500000000E+02 2.561178111920E-09-4.800181017435E-01
     8.942559361458E-06 2.616592682898E-04 7.653608918190E-06 5.440636960983E+03
     3.648000000000E+05 7.450580596924E-09-2.827222448317E+00-3.911554813385E-08
     9.898674057564E-01 1.885312500000E+02-1.534272977977E+00-5.446298288756E-09
     3.246563803842E-10 5.210000000000E+02 2.034000000000E+03 0.000000000000E+00
     3.120000000000E+00 0.000000000000E+00-2.328306436539E-10-2.328306436539E-10
     3.654850000000E+05 0.000000000000E+00 0.000000000000E+00 0.000000000000E+00
E33 2019 01 03 05 20 00 8.478571544401E-04 5.684341886081E-14 0.000000000000E+00
     9.600000000000E+01-1.921875000000E+02 2.602251251353E-09-1.814436640238E+00
    -8.905306458473E-06 3.536073490977E-04 9.531155228615E-06 5.440601575851E+03
     3.648000000000E+05-1.117587089539E-08-7.441983306876E-01 1.490116119385E-08
     9.852743667122E-01 1.455625000000E+02-1.528249386453E+00-5.318792977648E-09
    -1.467918287546E-10 5.210000000000E+02 2.034000000000E+03 0.000000000000E+00
     3.120000000000E+00 4.550000000000E+02-7.916241884232E-09-9.080395102501E-09
     3.654850000000E+05 0.000000000000E+00 0.000000000000E+00 0.000000000000E+00
E36 2019 01 03 05 20 00 7.641331758350E-04-4.433786671143E-12 0.000000000000E+00
     9.600000000000E+01-1.747187500000E+02 2.600822620416E-09 2.229107301735E+00
    -8.102506399155E-06 3.232976887375E-04 8.087605237961E-06 5.440606042862E+03
     3.648000000000E+05 2.048909664154E-08-7.441719016096E-01-3.725290298462E-08
     9.852823630224E-01 1.770312500000E+02-1.643025077675E+00-5.358437486144E-09
    -1.714357124141E-10 5.210000000000E+02 2.034000000000E+03 0.000000000000E+00
    -1.000000000000E+00 4.550000000000E+02 1.164153218269E-09 6.984919309616E-10
     3.654850000000E+05 0.000000000000E+00 0.000000000000E+00 0.000000000000E+00
E02 2019 01 03 05 20 00 4.175998037681E-05 1.634248292248E-12 0.000000000000E+00
     9.600000000000E+01 1.786875000000E+02 2.549391906692E-09 2.183269056114E+00
     8.227303624153E-06 2.646929351613E-04 6.703659892082E-06 5.440628814697E+03
     3.648000000000E+05 1.173466444016E-07-2.824616400199E+00 8.568167686462E-08
     9.903363075738E-01 2.079375000000E+02-2.901902379882E-01-5.456655863048E-09
     2.028655930234E-10 2.580000000000E+02 2.034000000000E+03 0.000000000000E+00
     3.120000000000E+00 0.000000000000E+00-6.053596735001E-09 0.000000000000E+00
     3.655000000000E+05 0.000000000000E+00 0.000000000000E+00 0.000000000000E+00
E07 2019 01 03 05 20 00-1.054862514138E-04-7.062794793455E-12 0.000000000000E+00
     9.600000000000E+01-1.562500000000E+01 3.724798009931E-09 2.302310373611E+00
    -8.139759302139E-07 1.573710469529E-04 4.598870873451E-06 5.440604240417E+03
     3.648000000000E+05 3.725290298462E-08 1.366398321232E+00 1.117587089539E-08
     9.521933036331E-01 2.399687500000E+02 1.097944346818E-01-5.785598136242E-09
    -2.121516941125E-10 2.580000000000E+02 2.034000000000E+03 0.000000000000E+00
     3.120000000000E+00 0.000000000000E+00 4.656612873077E-10 0.000000000000E+00
     3.655000000000E+05 0.000000000000E+00 0.000000000000E+00 0.000000000000E+00
E09 2019 01 03 05 20 00 6.569583609235E-03-1.134026206273E-11 0.000000000000E+00
     9.600000000000E+01-1.009375000000E+01 3.662295406447E-09-8.845428426570E-01
    -5.587935447693E-07 2.591374795884E-04 4.280358552933E-06 5.440603992462E+03
     3.648000000000E+05 1.490116119385E-08 1.357737882776E+00-1.303851604462E-08
     9.581627086714E-01 2.487187500000E+02 1.550712108812E-01-5.789526871319E-09
    -1.275053111080E-10 2.580000000000E+02 2.034000000000E+03 0.000000000000E+00
     3.120000000000E+00 0.000000000000E+00-3.492459654808E-09 0.000000000000E+00
     3.655000000000E+05 0.000000000000E+00 0.000000000000E+00 0.000000000000E+00
E11 2019 01 03 05 20 00 5.718834290747E-03 1.207922650792E-12 0.000000000000E+00
     9.600000000000E+01-1.834687500000E+02 2.730470877929E-09 1.729915486129E+00
    -8.389353752136E-06 2.373600145802E-04 7.856637239456E-06 5.440608074188E+03
     3.648000000000E+05 4.284083843231E-08-7.388563873057E-01 1.303851604462E-08
     9.820359254410E-01 1.821250000000E+02-3.636516231612E-01-5.397724836905E-09
    -1.492919328940E-10 2.580000000000E+02 2.034000000000E+03 0.000000000000E+00
     3.120000000000E+00 0.000000000000E+00-1.839362084866E-08 0.000000000000E+00
     3.655000000000E+05 0.000000000000E+00 0.000000000000E+00 0.000000000000E+00
E14 2019 01 03 05 20 00 6.465525308158E-03-5.556444193644E-12 0.000000000000E+00
     9.600000000000E+01-2.009375000000E+01 6.025965291356E-09-9.451731035565E-01
     3.725290298462E-08 1.663531512022E-01 6.865710020065E-06 5.289330825806E+03
     3.648000000000E+05-2.339482307434E-06-1.338602507607E+00 3.546476364136E-06
     8.825864018491E-01 2.298125000000E+02 1.450815442847E+00-9.947200055095E-09
    -6.246688771090E-10 2.580000000000E+02 2.034000000000E+03 0.000000000000E+00
     3.120000000000E+00 5.600000000000E+01 3.306195139885E-08 0.000000000000E+00
     3.655000000000E+05 0.000000000000E+00 0.000000000000E+00 0.000000000000E+00
